EPOCH,NORAD_CAT_ID,MEAN_MOTION,ECCENTRICITY,INCLINATION,RA_OF_ASC_NODE,ARG_OF_PERICENTER,MEAN_ANOMALY,MEAN_MOTION_DOT,BSTAR,TLE_LINE1,TLE_LINE2
2023-10-17 22:45:36,50803,15.08845649,0.0001769,53.2133,131.4938,129.6876,230.4272,0.00001916,0.00013842,1 50803U 22001A   23290.94833845  .00001916  00000-0  13842-3 0  9999,2 50803  53.2133 131.4938 0001769 129.6876 230.4272 15.08845649 98508
2023-10-18 13:04:04,50803,15.08847562,0.0001956,53.2118,128.8201,90.9266,269.195,0.00003043,0.00020915,1 50803U 22001A   23291.54450145  .00003043  00000-0  20915-3 0  9996,2 50803  53.2118 128.8201 0001956  90.9266 269.1950 15.08847562 99863
2023-10-18 16:14:51,50803,15.0884213,0.0001427,53.214,128.2254,93.2861,266.8294,0.00001248,0.000096459,1 50803U 22001A   23291.67698243  .00001248  00000-0  96459-4 0  9995,2 50803  53.2140 128.2254 0001427  93.2861 266.8294 15.08842130 99883
2023-10-18 16:14:51,50803,15.0884213,0.0001427,53.214,128.2254,93.2861,266.8294,0.00001248,0.000096459,1 50803U 22001A   23291.67698243  .00001248  00000-0  96459-4 0  9995,2 50803  53.2140 128.2254 0001427  93.2861 266.8294 15.08842130 98613
2023-10-19 19:16:24,50803,15.08851951,0.0001985,53.2141,123.1673,95.3086,264.8133,0.00003637,0.00024643,1 50803U 22001A   23292.80305891  .00003637  00000-0  24643-3 0  9994,2 50803  53.2141 123.1673 0001985  95.3086 264.8133 15.08851951 98783
2023-10-19 19:16:24,50803,15.08851951,0.0001985,53.2141,123.1673,95.3086,264.8133,0.00003637,0.00024643,1 50803U 22001A   23292.80305891  .00003637  00000-0  24643-3 0  9994,2 50803  53.2141 123.1673 0001985  95.3086 264.8133 15.08851951100057
2023-10-19 22:27:10,50803,15.0884798,0.0001578,53.2141,122.5743,94.4685,265.6487,0.00003294,0.00022488,1 50803U 22001A   23292.93553973  .00003294  00000-0  22488-3 0  9998,2 50803  53.2141 122.5743 0001578  94.4685 265.6487 15.08847980 98808
2023-10-20 15:56:25,50803,15.08834877,0.0001694,53.2151,119.3023,90.7032,269.4154,-0.00000779,-0.000030876,1 50803U 22001A   23293.66418739 -.00000779  00000-0 -30876-4 0  9997,2 50803  53.2151 119.3023 0001694  90.7032 269.4154 15.08834877100187
2023-10-20 22:17:58,50803,15.08833372,0.0001685,53.2152,118.1131,89.3787,270.7398,-0.00000987,-0.000043898,1 50803U 22001A   23293.92914900 -.00000987  00000-0 -43898-4 0  9996,2 50803  53.2152 118.1131 0001685  89.3787 270.7398 15.08833372 98951
2023-10-21 18:57:59,50803,15.08850031,0.0001185,53.2168,114.2478,90.5487,269.5641,-0.00002465,-0.00013679,1 50803U 22001A   23294.79026626 -.00002465  00000-0 -13679-3 0  9997,2 50803  53.2168 114.2478 0001185  90.5487 269.5641 15.08850031100351
2023-10-21 18:57:59,50803,15.08850031,0.0001185,53.2168,114.2478,90.5487,269.5641,-0.00002465,-0.00013679,1 50803U 22001A   23294.79026626 -.00002465  00000-0 -13679-3 0  9997,2 50803  53.2168 114.2478 0001185  90.5487 269.5641 15.08850031 99088
2023-10-22 12:27:13,50803,15.08835466,0.0001182,53.2175,110.9762,84.7318,275.3809,0.00001817,0.00013226,1 50803U 22001A   23295.51891030  .00001817  00000-0  13226-3 0  9993,2 50803  53.2175 110.9762 0001182  84.7318 275.3809 15.08835466 99198
2023-10-22 18:48:46,50803,15.08841416,0.0001238,53.2169,109.7874,87.0418,273.0715,0.00002544,0.00017783,1 50803U 22001A   23295.78386683  .00002544  00000-0  17783-3 0  9995,2 50803  53.2169 109.7874 0001238  87.0418 273.0715 15.08841416 99238
2023-10-23 01:10:18,50803,15.08849642,0.0001214,53.2164,108.5983,85.388,274.7251,0.00004028,0.00027097,1 50803U 22001A   23296.04882421  .00004028  00000-0  27097-3 0  9994,2 50803  53.2164 108.5983 0001214  85.3880 274.7251 15.08849642100548
2023-10-23 10:42:37,50803,15.08834421,0.0001314,53.216,106.8142,84.3889,275.7253,-0.000001,0.000011811,1 50803U 22001A   23296.44627254 -.00000100  00000-0  11811-4 0  9995,2 50803  53.2160 106.8142 0001314  84.3889 275.7253 15.08834421100600
2023-10-23 21:50:19,50803,15.08843932,0.0001273,53.2159,104.7337,88.383,271.7308,0.00002281,0.00016133,1 50803U 22001A   23296.90994895  .00002281  00000-0  16133-3 0  9996,2 50803  53.2159 104.7337 0001273  88.3830 271.7308 15.08843932 99404
2023-10-24 12:08:47,50803,15.08841612,0.0001299,53.2158,102.0574,86.805,273.3091,0.00001682,0.00012375,1 50803U 22001A   23297.50610958  .00001682  00000-0  12375-3 0  9996,2 50803  53.2158 102.0574 0001299  86.8050 273.3091 15.08841612100764
2023-10-24 13:44:10,50803,15.08843385,0.0001287,53.2158,101.7601,88.4054,271.7085,0.00002164,0.00015398,1 50803U 22001A   23297.57234909  .00002164  00000-0  15398-3 0  9995,2 50803  53.2158 101.7601 0001287  88.4054 271.7085 15.08843385 99503
2023-10-25 13:34:57,50803,15.08845063,0.0001298,53.2159,97.2994,89.0697,271.0444,0.0000314,0.00021527,1 50803U 22001A   23298.56594830  .00003140  00000-0  21527-3 0  9993,2 50803  53.2159  97.2994 0001298  89.0697 271.0444 15.08845063100926
2023-10-25 21:31:53,50803,15.08852748,0.0001279,53.2158,95.8125,88.3601,271.7537,0.00004808,0.00031986,1 50803U 22001A   23298.89714450  .00004808  00000-0  31986-3 0  9993,2 50803  53.2158  95.8125 0001279  88.3601 271.7537 15.08852748 99702
2023-10-26 11:50:21,50803,15.08842798,0.0001367,53.2158,93.1362,84.6144,275.5004,0.00001696,0.0001246,1 50803U 22001A   23299.49330811  .00001696  00000-0  12460-3 0  9993,2 50803  53.2158  93.1362 0001367  84.6144 275.5004 15.08842798101063
2023-10-26 13:25:44,50803,15.0884482,0.0001368,53.2159,92.8388,85.8902,274.2247,0.00002366,0.00016667,1 50803U 22001A   23299.55954775  .00002366  00000-0  16667-3 0  9999,2 50803  53.2159  92.8388 0001368  85.8902 274.2247 15.08844820 99805
2023-10-26 19:47:17,50803,15.08853831,0.0001426,53.2158,91.6495,85.2107,274.9048,0.00005897,0.00038812,1 50803U 22001A   23299.82450505  .00005897  00000-0  38812-3 0  9999,2 50803  53.2158  91.6495 0001426  85.2107 274.9048 15.08853831 99848
2023-10-27 03:44:12,50803,15.08849836,0.0001391,53.2157,90.1625,81.3286,278.7864,0.00005784,0.00038111,1 50803U 22001A   23300.15570541  .00005784  00000-0  38111-3 0  9998,2 50803  53.2157  90.1625 0001391  81.3286 278.7864 15.08849836 99895
2023-10-27 16:27:17,50803,15.08848437,0.0001164,53.2159,87.7831,90.0992,270.0133,0.00005246,0.00034739,1 50803U 22001A   23300.68562415  .00005246  00000-0  34739-3 0  9992,2 50803  53.2159  87.7831 0001164  90.0992 270.0133 15.08848437101240
2023-10-27 16:27:17,50803,15.08848437,0.0001164,53.2159,87.7831,90.0992,270.0133,0.00005246,0.00034739,1 50803U 22001A   23300.68562415  .00005246  00000-0  34739-3 0  9992,2 50803  53.2159  87.7831 0001164  90.0992 270.0133 15.08848437 99976
2023-10-28 13:07:19,50803,15.08835689,0.0000651,53.2166,83.9173,74.2677,285.8387,0.00003021,0.00020781,1 50803U 22001A   23301.54675023  .00003021  00000-0  20781-3 0  9999,2 50803  53.2166  83.9173 0000651  74.2677 285.8387 15.08835689100103
2023-10-28 16:18:05,50803,15.08834998,0.0001234,53.2166,83.3213,95.3275,264.7858,0.00000711,0.00006274,1 50803U 22001A   23301.67923100  .00000711  00000-0  62740-4 0  9990,2 50803  53.2166  83.3213 0001234  95.3275 264.7858 15.08834998100121
2023-10-28 16:18:05,50803,15.08834998,0.0001234,53.2166,83.3213,95.3275,264.7858,0.00000711,0.00006274,1 50803U 22001A   23301.67923100  .00000711  00000-0  62740-4 0  9990,2 50803  53.2166  83.3213 0001234  95.3275 264.7858 15.08834998101391
2023-10-29 12:58:05,50803,15.08855076,0.0001799,53.2177,79.4579,95.388,264.7317,0.00005022,0.00033328,1 50803U 22001A   23302.54034611  .00005022  00000-0  33328-3 0  9996,2 50803  53.2177  79.4579 0001799  95.3880 264.7317 15.08855076101527
2023-10-29 14:33:29,50803,15.08856878,0.0001475,53.2178,79.1606,96.8785,263.2375,0.00008445,0.00054779,1 50803U 22001A   23302.60658633  .00008445  00000-0  54779-3 0  9994,2 50803  53.2178  79.1606 0001475  96.8785 263.2375 15.08856878100266
2023-10-29 16:08:52,50803,15.0886137,0.0001439,53.2177,78.8642,97.5119,262.6036,0.00013659,0.00087412,1 50803U 22001A   23302.67282616  .00013659  00000-0  87412-3 0  9998,2 50803  53.2177  78.8642 0001439  97.5119 262.6036 15.08861370100271
2023-10-30 09:38:06,50803,15.08841598,0.0000676,53.2182,75.5921,83.6858,276.4211,0.00002444,0.00017157,1 50803U 22001A   23303.40146902  .00002444  00000-0  17157-3 0  9996,2 50803  53.2182  75.5921 0000676  83.6858 276.4211 15.08841598101650
2023-10-30 17:35:02,50803,15.08842608,0.0001454,53.2177,74.1054,105.3108,254.8044,0.00006451,0.00042298,1 50803U 22001A   23303.73266940  .00006451  00000-0  42298-3 0  9993,2 50803  53.2177  74.1054 0001454 105.3108 254.8044 15.08842608100433
2023-10-31 12:39:40,50803,15.08833857,0.0001485,53.2175,70.5371,107.6736,252.4418,0.00004806,0.00031989,1 50803U 22001A   23304.52755627  .00004806  00000-0  31989-3 0  9993,2 50803  53.2175  70.5371 0001485 107.6736 252.4418 15.08833857101828
2023-10-31 14:15:03,50803,15.08837488,0.0001514,53.2181,70.2388,101.3113,258.805,0.00005729,0.00037778,1 50803U 22001A   23304.59379610  .00005729  00000-0  37778-3 0  9991,2 50803  53.2181  70.2388 0001514 101.3113 258.8050 15.08837488100569
2023-10-31 15:50:27,50803,15.08838607,0.0001121,53.2189,69.942,92.7534,267.3587,0.00006545,0.00042892,1 50803U 22001A   23304.66003599  .00006545  00000-0  42892-3 0  9999,2 50803  53.2189  69.9420 0001121  92.7534 267.3587 15.08838607100578
2023-11-01 14:05:51,50803,15.08840733,0.0001339,53.2173,65.779,92.8817,267.2329,0.0000389,0.00026236,1 50803U 22001A   23305.58739793  .00003890  00000-0  26236-3 0  9997,2 50803  53.2173  65.7790 0001339  92.8817 267.2329 15.08840733100713
2023-11-01 17:16:37,50803,15.08847371,0.0001226,53.2173,65.1847,88.8824,271.2309,0.00006043,0.00039734,1 50803U 22001A   23305.71987615  .00006043  00000-0  39734-3 0  9990,2 50803  53.2173  65.1847 0001226  88.8824 271.2309 15.08847371100738
2023-11-01 17:16:37,50803,15.08847371,0.0001226,53.2173,65.1847,88.8824,271.2309,0.00006043,0.00039734,1 50803U 22001A   23305.71987615  .00006043  00000-0  39734-3 0  9990,2 50803  53.2173  65.1847 0001226  88.8824 271.2309 15.08847371102000
